$$SOE
2460721.500000000, A.D. 2025-Feb-15 00:00:00.0000, -2.050572731012549E+08, 4.328488635623653E+08, 1.010365798845645E+08,
2460728.500000000, A.D. 2025-Feb-22 00:00:00.0000, -2.135450587734253E+08, 4.285192078718346E+08, 1.024230725736858E+08,
2460735.500000000, A.D. 2025-Mar-01 00:00:00.0000, -2.219443840682412E+08, 4.240123803583226E+08, 1.037671547929734E+08,
2460742.500000000, A.D. 2025-Mar-08 00:00:00.0000, -2.302518291038916E+08, 4.193303452332988E+08, 1.050682961951382E+08,
2460749.500000000, A.D. 2025-Mar-15 00:00:00.0000, -2.384640070470676E+08, 4.144751245454704E+08, 1.063259812739629E+08,
2460756.500000000, A.D. 2025-Mar-22 00:00:00.0000, -2.465775668400276E+08, 4.094487981187842E+08, 1.075397096573925E+08,
2460763.500000000, A.D. 2025-Mar-29 00:00:00.0000, -2.545891945603651E+08, 4.042535012509480E+08, 1.087089960945971E+08,
2460770.500000000, A.D. 2025-Apr-05 00:00:00.0000, -2.624956130899374E+08, 3.988914233099078E+08, 1.098333703635510E+08,
2460777.500000000, A.D. 2025-Apr-12 00:00:00.0000, -2.702935820202183E+08, 3.933648073333349E+08, 1.109123772845055E+08,
2460784.500000000, A.D. 2025-Apr-19 00:00:00.0000, -2.779798979813467E+08, 3.876759497497458E+08, 1.119455767842147E+08,
2460791.500000000, A.D. 2025-Apr-26 00:00:00.0000, -2.855513951235912E+08, 3.818272000173429E+08, 1.129325439689583E+08,
2460798.500000000, A.D. 2025-May-03 00:00:00.0000, -2.930049456383451E+08, 3.758209601989712E+08, 1.138728691972064E+08,
2460805.500000000, A.D. 2025-May-10 00:00:00.0000, -3.003374602909676E+08, 3.696596844812611E+08, 1.147661581498411E+08,
2460812.500000000, A.D. 2025-May-17 00:00:00.0000, -3.075458889296245E+08, 3.633458785963813E+08, 1.156120318911183E+08,
2460819.500000000, A.D. 2025-May-24 00:00:00.0000, -3.146272207970200E+08, 3.568820990913459E+08, 1.164101268999072E+08,
2460826.500000000, A.D. 2025-May-31 00:00:00.0000, -3.215784842280745E+08, 3.502709527550985E+08, 1.171600950582584E+08,
2460833.500000000, A.D. 2025-Jun-07 00:00:00.0000, -3.283967461357417E+08, 3.435150974074784E+08, 1.178616037326520E+08,
2460840.500000000, A.D. 2025-Jun-14 00:00:00.0000, -3.350791136511520E+08, 3.366172433834901E+08, 1.185143361107930E+08,
2460847.500000000, A.D. 2025-Jun-21 00:00:00.0000, -3.416227367012320E+08, 3.295801524417981E+08, 1.191179914151344E+08,
2460854.500000000, A.D. 2025-Jun-28 00:00:00.0000, -3.480248083948286E+08, 3.224066358599348E+08, 1.196722848497600E+08,
2460861.500000000, A.D. 2025-Jul-05 00:00:00.0000, -3.542825647358372E+08, 3.150995538710092E+08, 1.201769475960717E+08,
2460868.500000000, A.D. 2025-Jul-12 00:00:00.0000, -3.603932848560779E+08, 3.076618156368519E+08, 1.206317269013127E+08,
2460875.500000000, A.D. 2025-Jul-19 00:00:00.0000, -3.663542915787839E+08, 3.000963791823455E+08, 1.210363861957368E+08,
2460882.500000000, A.D. 2025-Jul-26 00:00:00.0000, -3.721629521030861E+08, 2.924062512334790E+08, 1.213907052145497E+08,
2460889.500000000, A.D. 2025-Aug-02 00:00:00.0000, -3.778166787446488E+08, 2.845944869797927E+08, 1.216944801204569E+08,
2460896.500000000, A.D. 2025-Aug-09 00:00:00.0000, -3.833129297096620E+08, 2.766641897457131E+08, 1.219475236236097E+08,
2460903.500000000, A.D. 2025-Aug-16 00:00:00.0000, -3.886492098258501E+08, 2.686185105067394E+08, 1.221496650868971E+08,
2460910.500000000, A.D. 2025-Aug-23 00:00:00.0000, -3.938230709383913E+08, 2.604606472660784E+08, 1.223007505912659E+08,
2460917.500000000, A.D. 2025-Aug-30 00:00:00.0000, -3.988321116423622E+08, 2.521938450046333E+08, 1.224006429894222E+08,
2460924.500000000, A.D. 2025-Sep-06 00:00:00.0000, -4.036739777710382E+08, 2.438213972034382E+08, 1.224492221601252E+08,
2460931.500000000, A.D. 2025-Sep-13 00:00:00.0000, -4.083463653126066E+08, 2.353466464555076E+08, 1.224463854142392E+08,
2460938.500000000, A.D. 2025-Sep-20 00:00:00.0000, -4.128470224819523E+08, 2.267729825227894E+08, 1.223920476182844E+08,
2460945.500000000, A.D. 2025-Sep-27 00:00:00.0000, -4.171737498879368E+08, 2.181038409479088E+08, 1.222861411922529E+08,
2460952.500000000, A.D. 2025-Oct-04 00:00:00.0000, -4.213244008140142E+08, 2.093427027582672E+08, 1.221286162109329E+08,
2460959.500000000, A.D. 2025-Oct-11 00:00:00.0000, -4.252968819868711E+08, 2.004930943194700E+08, 1.219194405663537E+08,
2460966.500000000, A.D. 2025-Oct-18 00:00:00.0000, -4.290891545488129E+08, 1.915585870634331E+08, 1.216586001425973E+08,
2460973.500000000, A.D. 2025-Oct-25 00:00:00.0000, -4.326992350931552E+08, 1.825427971008694E+08, 1.213460989902231E+08,
2460980.500000000, A.D. 2025-Nov-01 00:00:00.0000, -4.361251967224118E+08, 1.734493847315538E+08, 1.209819594970428E+08,
2460987.500000000, A.D. 2025-Nov-08 00:00:00.0000, -4.393651700949370E+08, 1.642820538186516E+08, 1.205662225489588E+08,
2460994.500000000, A.D. 2025-Nov-15 00:00:00.0000, -4.424173443132579E+08, 1.550445509667301E+08, 1.200989476624575E+08,
2461001.500000000, A.D. 2025-Nov-22 00:00:00.0000, -4.452799672527175E+08, 1.457406647224989E+08, 1.195802130700111E+08,
2461008.500000000, A.D. 2025-Nov-29 00:00:00.0000, -4.479513454845765E+08, 1.363742259325799E+08, 1.190101158652940E+08,
2461015.500000000, A.D. 2025-Dec-06 00:00:00.0000, -4.504298460720642E+08, 1.269491091215906E+08, 1.183887724060556E+08,
2461022.500000000, A.D. 2025-Dec-13 00:00:00.0000, -4.527138998069433E+08, 1.174692315202204E+08, 1.177163186596531E+08,
2461029.500000000, A.D. 2025-Dec-20 00:00:00.0000, -4.548020023922556E+08, 1.079385507665685E+08, 1.169929102539303E+08,
2461036.500000000, A.D. 2025-Dec-27 00:00:00.0000, -4.566927146428297E+08, 9.836106387015201E+07, 1.162187225425076E+08,
2461043.500000000, A.D. 2026-Jan-03 00:00:00.0000, -4.583846631626978E+08, 8.874080682069145E+07, 1.153939507675492E+08,
2461050.500000000, A.D. 2026-Jan-10 00:00:00.0000, -4.598765413903023E+08, 7.908185416170856E+07, 1.145188102545082E+08,
2461057.500000000, A.D. 2026-Jan-17 00:00:00.0000, -4.611671107787839E+08, 6.938831843675627E+07, 1.135935366099294E+08,
2461064.500000000, A.D. 2026-Jan-24 00:00:00.0000, -4.622552020328290E+08, 5.966434953011952E+07, 1.126183859167510E+08,
2461071.500000000, A.D. 2026-Jan-31 00:00:00.0000, -4.631397163780463E+08, 4.991413389361258E+07, 1.115936349240929E+08,
2461078.500000000, A.D. 2026-Feb-07 00:00:00.0000, -4.638196268008157E+08, 4.014189360116455E+07, 1.105195812209763E+08,
2461085.500000000, A.D. 2026-Feb-14 00:00:00.0000, -4.642939790049343E+08, 3.035188521497099E+07, 1.093965433692739E+08,
2461092.500000000, A.D. 2026-Feb-21 00:00:00.0000, -4.645618916965928E+08, 2.054839903925137E+07, 1.082248610071654E+08,
2461099.500000000, A.D. 2026-Feb-28 00:00:00.0000, -4.646225572814214E+08, 1.073575991367296E+07, 1.070048951164066E+08,
2461106.500000000, A.D. 2026-Mar-07 00:00:00.0000, -4.644752450318871E+08, 9.183275945511609E+05, 1.057370284826176E+08,
2461113.500000000, A.D. 2026-Mar-14 00:00:00.0000, -4.641193039495963E+08, -8.899505610018864E+06, 1.044216659033819E+08,
2461120.500000000, A.D. 2026-Mar-21 00:00:00.0000, -4.635541635375988E+08, -1.871331705358418E+07, 1.030592342167636E+08,
2461127.500000000, A.D. 2026-Mar-28 00:00:00.0000, -4.627793344887232E+08, -2.851865478669013E+07, 1.016501824173337E+08,
2461134.500000000, A.D. 2026-Apr-04 00:00:00.0000, -4.617944098918651E+08, -3.831103838294061E+07, 1.001949818354126E+08,
2461141.500000000, A.D. 2026-Apr-11 00:00:00.0000, -4.605990666814703E+08, -4.808595991834502E+07, 9.869412632475996E+07,
2461148.500000000, A.D. 2026-Apr-18 00:00:00.0000, -4.591930671697105E+08, -5.783888511283404E+07, 9.714813244338319E+07,
2461155.500000000, A.D. 2026-Apr-25 00:00:00.0000, -4.575762606138824E+08, -6.756525462143517E+07, 9.555753962426540E+07,
2461162.500000000, A.D. 2026-May-02 00:00:00.0000, -4.557485847866038E+08, -7.726048550691849E+07, 9.392291033060017E+07,
2461169.500000000, A.D. 2026-May-09 00:00:00.0000, -4.537100674224507E+08, -8.691997296216550E+07, 9.224483017849582E+07,
2461176.500000000, A.D. 2026-May-16 00:00:00.0000, -4.514608271611817E+08, -9.653909214570996E+07, 9.052390800347534E+07,
2461183.500000000, A.D. 2026-May-23 00:00:00.0000, -4.490010739334471E+08, -1.061131991097174E+08, 8.876077594902922E+07,
2461190.500000000, A.D. 2026-May-30 00:00:00.0000, -4.463311108649936E+08, -1.156376305027954E+08, 8.695608979323122E+07,
2461197.500000000, A.D. 2026-Jun-06 00:00:00.0000, -4.434513380153600E+08, -1.251077053235370E+08, 8.511052927444547E+07,
2461204.500000000, A.D. 2026-Jun-13 00:00:00.0000, -4.403622542844083E+08, -1.345187285269345E+08, 8.322479809569606E+07,
2461211.500000000, A.D. 2026-Jun-20 00:00:00.0000, -4.370644579846848E+08, -1.438659935570694E+08, 8.129962389154477E+07,
2461218.500000000, A.D. 2026-Jun-27 00:00:00.0000, -4.335586477728793E+08, -1.531447841460808E+08, 7.933575828352119E+07,
2461225.500000000, A.D. 2026-Jul-04 00:00:00.0000, -4.298456239354867E+08, -1.623503761557530E+08, 7.733397695888487E+07,
2461232.500000000, A.D. 2026-Jul-11 00:00:00.0000, -4.259262897703810E+08, -1.714780395957484E+08, 7.529507973712075E+07,
2461239.500000000, A.D. 2026-Jul-18 00:00:00.0000, -4.218016529678137E+08, -1.805230407952253E+08, 7.321989061661248E+07,
2461246.500000000, A.D. 2026-Jul-25 00:00:00.0000, -4.174728269634696E+08, -1.894806447276715E+08, 7.110925779868320E+07,
2461253.500000000, A.D. 2026-Aug-01 00:00:00.0000, -4.129410322133250E+08, -1.983461175390801E+08, 6.896405368007337E+07,
2461260.500000000, A.D. 2026-Aug-08 00:00:00.0000, -4.082075971733387E+08, -2.071147293163701E+08, 6.678517479056985E+07,
2461267.500000000, A.D. 2026-Aug-15 00:00:00.0000, -4.032739585661280E+08, -2.157817566457672E+08, 6.457354167363574E+07,
2461274.500000000, A.D. 2026-Aug-22 00:00:00.0000, -3.981416616916477E+08, -2.243424837394584E+08, 6.233009887845895E+07,
2461281.500000000, A.D. 2026-Aug-29 00:00:00.0000, -3.928123630661626E+08, -2.327922035033580E+08, 6.005581515986559E+07,
2461288.500000000, A.D. 2026-Sep-05 00:00:00.0000, -3.872878332520080E+08, -2.411262214151161E+08, 5.775168345500102E+07,
$$EOE